[{"OBJECT_NAME":"STARLINK-5052","OBJECT_ID":"2022-119H","EPOCH":"2026-03-09T22:46:21.313056","MEAN_MOTION":15.08840994,"ECCENTRICITY":0.00014826,"INCLINATION":53.2168,"RA_OF_ASC_NODE":322.9627,"ARG_OF_PERICENTER":116.2808,"MEAN_ANOMALY":243.8336,"EPHEMERIS_TYPE":0,"CLASSIFICATION_TYPE":"U","NORAD_CAT_ID":53893,"ELEMENT_SET_NO":999,"REV_AT_EPOCH":19172,"BSTAR":-0.00012492769,"MEAN_MOTION_DOT":-2.276e-5,"MEAN_MOTION_DDOT":0},{"OBJECT_NAME":"FENGYUN 1C DEB","OBJECT_ID":"1999-025DZE","EPOCH":"2026-02-28T06:22:54.338880","MEAN_MOTION":15.08907087,"ECCENTRICITY":0.00232464,"INCLINATION":99.4552,"RA_OF_ASC_NODE":173.2368,"ARG_OF_PERICENTER":218.3208,"MEAN_ANOMALY":141.6363,"EPHEMERIS_TYPE":0,"CLASSIFICATION_TYPE":"U","NORAD_CAT_ID":36684,"ELEMENT_SET_NO":999,"REV_AT_EPOCH":67065,"BSTAR":0.0055309563,"MEAN_MOTION_DOT":0.00088715,"MEAN_MOTION_DDOT":0}]
